FENGYUN 1C DEB          
1 35201U 99025DPH 17346.33016387 -.00000062  00000-0 -98761-5 0  9994
2 35201  98.9608   9.4098 0006226 225.6568 200.8635 14.10112616458254
